{
  "type": "FeatureCollection",
  "features": [
    {
      "type": "Feature",
      "properties": {
        "norad_id": 31323,
        "name": "FENGYUN 1C DEB",
        "group": "fengyun-1c-debris",
        "lat": 35.68657437191995,
        "lon": -152.25271030055995,
        "alt_km": 783.4414194529681,
        "timestamp": "2025-12-08T17:43:05.213068+00:00",
        "meta_object_name": "FENGYUN 1C DEB",
        "meta_object_id": "1999-025BQB",
        "meta_epoch": "2025-12-05T21:45:51.609312",
        "meta_mean_motion": 14.27517995,
        "meta_eccentricity": 0.00318863,
        "meta_inclination": 99.4204,
        "meta_ra_of_asc_node": 17.85,
        "meta_arg_of_pericenter": 99.214,
        "meta_mean_anomaly": 261.2647,
        "meta_ephemeris_type": 0,
        "meta_classification_type": "U",
        "meta_norad_cat_id": 31323,
        "meta_element_set_no": 999,
        "meta_rev_at_epoch": 63883,
        "meta_bstar": 0.0025505728,
        "meta_mean_motion_dot": 6.258e-05,
        "meta_mean_motion_ddot": 0,
        "tle_line1": "1 31323U 99025BQB 25339.90684733  .00006258  00000+0  25506-2 0  9999",
        "tle_line2": "2 31323  99.4204  17.8500 0031886  99.2140 261.2647 14.27517995638830"
      },
      "geometry": {
        "type": "Point",
        "coordinates": [
          -152.25271030055995,
          35.68657437191995
        ]
      }
    },
    {
      "type": "Feature",
      "properties": {
        "norad_id": 31324,
        "name": "FENGYUN 1C DEB",
        "group": "fengyun-1c-debris",
        "lat": 75.26887055551649,
        "lon": -133.54701934058758,
        "alt_km": 855.3581811662461,
        "timestamp": "2025-12-08T17:43:05.213079+00:00",
        "meta_object_name": "FENGYUN 1C DEB",
        "meta_object_id": "1999-025BQC",
        "meta_epoch": "2025-12-07T05:42:12.838176",
        "meta_mean_motion": 14.1468856,
        "meta_eccentricity": 0.00495023,
        "meta_inclination": 99.1231,
        "meta_ra_of_asc_node": 262.5935,
        "meta_arg_of_pericenter": 319.9543,
        "meta_mean_anomaly": 39.7984,
        "meta_ephemeris_type": 0,
        "meta_classification_type": "U",
        "meta_norad_cat_id": 31324,
        "meta_element_set_no": 999,
        "meta_rev_at_epoch": 96408,
        "meta_bstar": 0.0003363527,
        "meta_mean_motion_dot": 6.08e-06,
        "meta_mean_motion_ddot": 0,
        "tle_line1": "1 31324U 99025BQC 25341.23764859  .00000608  00000+0  33635-3 0  9993",
        "tle_line2": "2 31324  99.1231 262.5935 0049502 319.9543  39.7984 14.14688560964086"
      },
      "geometry": {
        "type": "Point",
        "coordinates": [
          -133.54701934058758,
          75.26887055551649
        ]
      }
    },
    {
      "type": "Feature",
      "properties": {
        "norad_id": 31325,
        "name": "FENGYUN 1C DEB",
        "group": "fengyun-1c-debris",
        "lat": -40.81776512730677,
        "lon": 84.70837014207501,
        "alt_km": 839.8703153179176,
        "timestamp": "2025-12-08T17:43:05.213089+00:00",
        "meta_object_name": "FENGYUN 1C DEB",
        "meta_object_id": "1999-025BQD",
        "meta_epoch": "2025-11-24T23:23:39.646752",
        "meta_mean_motion": 14.16672096,
        "meta_eccentricity": 0.00707168,
        "meta_inclination": 98.9917,
        "meta_ra_of_asc_node": 62.9425,
        "meta_arg_of_pericenter": 270.4358,
        "meta_mean_anomaly": 88.8713,
        "meta_ephemeris_type": 0,
        "meta_classification_type": "U",
        "meta_norad_cat_id": 31325,
        "meta_element_set_no": 999,
        "meta_rev_at_epoch": 59526,
        "meta_bstar": 0.0025582335,
        "meta_mean_motion_dot": 5.193e-05,
        "meta_mean_motion_ddot": 0,
        "tle_line1": "1 31325U 99025BQD 25328.97476443  .00005193  00000+0  25582-2 0  9994",
        "tle_line2": "2 31325  98.9917  62.9425 0070716 270.4358  88.8713 14.16672096595261"
      },
      "geometry": {
        "type": "Point",
        "coordinates": [
          84.70837014207501,
          -40.81776512730677
        ]
      }
    },
    {
      "type": "Feature",
      "properties": {
        "norad_id": 31326,
        "name": "FENGYUN 1C DEB",
        "group": "fengyun-1c-debris",
        "lat": 16.27479885903683,
        "lon": 46.75733103815964,
        "alt_km": 582.4689200688854,
        "timestamp": "2025-12-08T17:43:05.213100+00:00",
        "meta_object_name": "FENGYUN 1C DEB",
        "meta_object_id": "1999-025BQE",
        "meta_epoch": "2025-11-25T14:42:32.298048",
        "meta_mean_motion": 14.96360134,
        "meta_eccentricity": 0.00187059,
        "meta_inclination": 99.013,
        "meta_ra_of_asc_node": 208.9742,
        "meta_arg_of_pericenter": 1.9794,
        "meta_mean_anomaly": 358.1494,
        "meta_ephemeris_type": 0,
        "meta_classification_type": "U",
        "meta_norad_cat_id": 31326,
        "meta_element_set_no": 999,
        "meta_rev_at_epoch": 73489,
        "meta_bstar": 0.0084230344,
        "meta_mean_motion_dot": 0.00096893,
        "meta_mean_motion_ddot": 0,
        "tle_line1": "1 31326U 99025BQE 25329.61287382  .00096893  00000+0  84230-2 0  9991",
        "tle_line2": "2 31326  99.0130 208.9742 0018705   1.9794 358.1494 14.96360134734894"
      },
      "geometry": {
        "type": "Point",
        "coordinates": [
          46.75733103815964,
          16.27479885903683
        ]
      }
    },
    {
      "type": "Feature",
      "properties": {
        "norad_id": 31327,
        "name": "FENGYUN 1C DEB",
        "group": "fengyun-1c-debris",
        "lat": 13.66000857553553,
        "lon": 165.63243060936497,
        "alt_km": 583.9986299268221,
        "timestamp": "2025-12-08T17:43:05.213110+00:00",
        "meta_object_name": "FENGYUN 1C DEB",
        "meta_object_id": "1999-025BQF",
        "meta_epoch": "2025-12-06T06:09:55.835136",
        "meta_mean_motion": 15.10366865,
        "meta_eccentricity": 0.00883653,
        "meta_inclination": 98.9841,
        "meta_ra_of_asc_node": 340.5203,
        "meta_arg_of_pericenter": 31.1175,
        "meta_mean_anomaly": 329.5241,
        "meta_ephemeris_type": 0,
        "meta_classification_type": "U",
        "meta_norad_cat_id": 31327,
        "meta_element_set_no": 999,
        "meta_rev_at_epoch": 1,
        "meta_bstar": 0.0026153573,
        "meta_mean_motion_dot": 0.00047286,
        "meta_mean_motion_ddot": 0,
        "tle_line1": "1 31327U 99025BQF 25340.25689624  .00047286  00000+0  26154-2 0  9993",
        "tle_line2": "2 31327  98.9841 340.5203 0088365  31.1175 329.5241 15.10366865    10"
      },
      "geometry": {
        "type": "Point",
        "coordinates": [
          165.63243060936497,
          13.66000857553553
        ]
      }
    },
    {
      "type": "Feature",
      "properties": {
        "norad_id": 31328,
        "name": "FENGYUN 1C DEB",
        "group": "fengyun-1c-debris",
        "lat": 66.18529578820426,
        "lon": -63.149898479569615,
        "alt_km": 858.6947559354521,
        "timestamp": "2025-12-08T17:43:05.213121+00:00",
        "meta_object_name": "FENGYUN 1C DEB",
        "meta_object_id": "1999-025BQG",
        "meta_epoch": "2025-12-08T03:57:08.240544",
        "meta_mean_motion": 14.28941383,
        "meta_eccentricity": 0.01034066,
        "meta_inclination": 98.4826,
        "meta_ra_of_asc_node": 316.055,
        "meta_arg_of_pericenter": 230.0089,
        "meta_mean_anomaly": 129.198,
        "meta_ephemeris_type": 0,
        "meta_classification_type": "U",
        "meta_norad_cat_id": 31328,
        "meta_element_set_no": 999,
        "meta_rev_at_epoch": 97397,
        "meta_bstar": 0.00012744935,
        "meta_mean_motion_dot": 2.98e-06,
        "meta_mean_motion_ddot": 0,
        "tle_line1": "1 31328U 99025BQG 25342.16467871  .00000298  00000+0  12745-3 0  9998",
        "tle_line2": "2 31328  98.4826 316.0550 0103406 230.0089 129.1980 14.28941383973970"
      },
      "geometry": {
        "type": "Point",
        "coordinates": [
          -63.149898479569615,
          66.18529578820426
        ]
      }
    },
    {
      "type": "Feature",
      "properties": {
        "norad_id": 31330,
        "name": "FENGYUN 1C DEB",
        "group": "fengyun-1c-debris",
        "lat": 69.96778359121964,
        "lon": -8.026842881328818,
        "alt_km": 535.9429926758494,
        "timestamp": "2025-12-08T17:43:05.213132+00:00",
        "meta_object_name": "FENGYUN 1C DEB",
        "meta_object_id": "1999-025BQJ",
        "meta_epoch": "2025-12-08T03:10:53.961600",
        "meta_mean_motion": 15.08531786,
        "meta_eccentricity": 0.00076415,
        "meta_inclination": 98.8898,
        "meta_ra_of_asc_node": 145.8503,
        "meta_arg_of_pericenter": 231.5417,
        "meta_mean_anomaly": 188.9526,
        "meta_ephemeris_type": 0,
        "meta_classification_type": "U",
        "meta_norad_cat_id": 31330,
        "meta_element_set_no": 999,
        "meta_rev_at_epoch": 97060,
        "meta_bstar": 0.012585921,
        "meta_mean_motion_dot": 0.00202009,
        "meta_mean_motion_ddot": 0,
        "tle_line1": "1 31330U 99025BQJ 25342.13256900  .00202009  00000+0  12586-1 0  9992",
        "tle_line2": "2 31330  98.8898 145.8503 0007641 231.5417 188.9526 15.08531786970604"
      },
      "geometry": {
        "type": "Point",
        "coordinates": [
          -8.026842881328818,
          69.96778359121964
        ]
      }
    }
  ]
}